OSCAR 7 (AO-7)          
1 07530U 74089B   26154.66963161 -.00000047  00000+0 -29295-5 0  9993
2 07530 101.9902 167.7751 0012419 155.3130 322.4092 12.53697881358826
PHASE 3B (AO-10)        
1 14129U 83058B   26153.31656221  .00000070  00000+0  00000+0 0  9999
2 14129  25.9022 222.0290 6015956 111.5768 320.3605  2.05871181295184
UOSAT 2 (UO-11)         
1 14781U 84021B   26155.13278985  .00001434  00000+0  15166-3 0  9991
2 14781  97.8051 120.8543 0006504 218.7082 141.3671 14.90749915255182
LUSAT (LO-19)           
1 20442U 90005G   26154.99565984  .00000130  00000+0  63317-4 0  9996
2 20442  98.8853 176.4374 0010544 242.4574 117.5539 14.34118989900502
EYESAT A (AO-27)        
1 22825U 93061C   26154.64439705  .00000131  00000+0  66973-4 0  9993
2 22825  98.6883 222.0623 0009234 135.0556 225.1375 14.30938483705069
ITAMSAT (IO-26)         
1 22826U 93061D   26154.97736360  .00000113  00000+0  59572-4 0  9994
2 22826  98.6830 222.3113 0009977 119.4870 240.7309 14.31364938705427
RADIO ROSTO (RS15)      
1 23439U 94085A   26155.16737505 -.00000049  00000+0 -18936-3 0  9994
2 23439  64.8178 324.2733 0155550   6.2800 354.0027 11.27583587294438
JAS-2 (FO-29)           
1 24278U 96046B   26154.55915222 -.00000028  00000+0  49295-5 0  9991
2 24278  98.5251   5.2975 0350636 131.7079 231.4625 13.53273610471325
TECHSAT 1B (GO-32)      
1 25397U 98043D   26154.57772251  .00000069  00000+0  49972-4 0  9993
2 25397  99.0064 146.9934 0000319 213.6137 146.5021 14.24425649449397
ISS (ZARYA)             
1 25544U 98067A   26154.96745432  .00008451  00000+0  15807-3 0  9999
2 25544  51.6330   5.5404 0007082 130.0270 230.1341 15.49590346569705
PCSAT (NO-44)           
1 26931U 01043C   26154.60928777  .00000163  00000+0  91734-4 0  9990
2 26931  67.0512 279.3895 0006115 263.9670  96.0735 14.31950876288500
SAUDISAT 1C (SO-50)     
1 27607U 02058C   26154.26409835  .00001126  00000+0  14986-3 0  9992
2 27607  64.5505 172.0623 0075519 265.0164  94.2317 14.83015002262393
CUTE-1 (CO-55)          
1 27844U 03031E   26154.54951729  .00000336  00000+0  16425-3 0  9994
2 27844  98.6736 163.2800 0008690 219.4250 140.6297 14.24327019189732
CUBESAT XI-IV (CO-57)   
1 27848U 03031J   26152.00092913  .00000288  00000+0  14576-3 0  9999
2 27848  98.6768 160.4891 0008288 248.3946 111.6350 14.23611465189071
MOZHAETS 4 (RS22)       
1 27939U 03042A   26155.17926058  .00001184  00000+0  19064-3 0  9992
2 27939  98.3464 339.1708 0010404 315.7267 134.7843 14.73443970213634
CUBESAT XI-V            
1 28895U 05043F   26152.36703129  .00001677  00000+0  27161-3 0  9991
2 28895  98.2967 307.6587 0012837 254.1655 105.8136 14.72584583 99425
CUTE-1.7+APD II (CO-65) 
1 32785U 08021C   26155.12268475  .00005458  00000+0  34597-3 0  9992
2 32785  97.8273 136.2716 0010699  76.9308 283.3114 15.09320521983221
SEEDS II (CO-66)        
1 32791U 08021J   26154.55442507  .00020146  00000+0  64842-3 0  9992
2 32791  97.7515 151.8069 0002991  42.0128 318.1342 15.32257900985206
YUBILEINY (RS30)        
1 32953U 08025A   26155.06101884  .00000012  00000+0  18825-4 0  9994
2 32953  82.5045   3.6071 0019413 343.2066  16.8369 12.43178772818065
KKS-1 (KISEKI)          
1 33499U 09002H   26155.03308470  .00001607  00000+0  20411-3 0  9997
2 33499  98.1193  77.2670 0007429 343.9089  16.1886 14.83088133934249
SWISSCUBE               
1 35932U 09051B   26154.27980436  .00001220  00000+0  25059-3 0  9992
2 35932  98.4045  61.9256 0005398 254.9932 105.0671 14.62453382887126
BEESAT-1                
1 35933U 09051C   26154.62429402  .00000980  00000+0  20663-3 0  9991
2 35933  98.3973  61.9398 0003909 272.0464  88.0289 14.61697093887202
ITUPSAT1                
1 35935U 09051E   26154.26074865  .00000935  00000+0  20304-3 0  9994
2 35935  98.4058  60.7773 0006171 286.3801  73.6720 14.60418625886705
XIWANG-1 (HOPE-1)       
1 36122U 09072B   26155.17203487 -.00000297  00000+0 -66176-3 0  9991
2 36122 100.4026 109.2127 0006794 264.4466  95.5872 13.16437079791294
O/OREOS (USA 219)       
1 37224U 10062C   26155.00288419  .00002646  00000+0  25562-3 0  9998
2 37224  71.9701 110.2018 0012350  92.0323 268.2262 14.93684023114675
JUGNU                   
1 37839U 11058B   26152.07859182  .00000456  00000+0  98509-4 0  9990
2 37839  19.9618  46.2876 0018499 258.1927 242.1590 14.13771859756742
SRMSAT                  
1 37841U 11058D   26152.32622016  .00000395  00000+0  70452-4 0  9994
2 37841  19.9701 155.4732 0011864  30.5063  85.9028 14.11572059755572
STRAND-1                
1 39090U 13009E   26155.03670315  .00000293  00000+0  11292-3 0  9999
2 39090  98.3918 335.5951 0007387 270.6143  89.4198 14.37155097695179
ZACUBE-1 (TSHEPISOSAT)  
1 39417U 13066B   26154.94254391  .00004510  00000+0  35148-3 0  9998
2 39417  97.8107 117.2078 0039904 294.5657  65.1411 15.01095965678748
GOMX-1                  
1 39430U 13066Q   26155.17985814  .00002410  00000+0  36522-3 0  9994
2 39430  97.6485 356.4635 0129976 118.8541 242.5783 14.69407798668000
